NORAD_CAT_ID,OBJECT_NAME,OBJECT_TYPE,EPOCH,MEAN_MOTION,ECCENTRICITY,INCLINATION,RA_OF_ASC_NODE,ARG_OF_PERICENTER,MEAN_ANOMALY,BSTAR,MEAN_MOTION_DOT,MEAN_MOTION_DDOT,TLE_LINE0,TLE_LINE1,TLE_LINE2,SEMIMAJOR_AXIS,PERIOD,APOGEE,PERIGEE,DECAYED
52995.0,STARLINK-4296,PAYLOAD,2023-11-26 03:13:31,15.08881955,0.0001568,53.2176,240.5839,101.0001,259.1168,0.001125,0.00017682,0.0,0 STARLINK-4296,1 52995U 22076K   23330.13439553  .00017682  00000-0  11250-2 0  9996,2 52995  53.2176 240.5839 0001568 101.0001 259.1168 15.08881955 77321,6917.752,95.435,540.702,538.532,0.0
52995.0,STARLINK-4296,PAYLOAD,2023-11-26 22:18:10,15.08825754,0.0001347,53.218,237.0197,89.0106,271.1041,-0.00036544,-6.097e-05,0.0,0 STARLINK-4296,1 52995U 22076K   23330.92928856 -.00006097  00000-0 -36544-3 0  9996,2 52995  53.2180 237.0197 0001347  89.0106 271.1041 15.08825754 76979,6917.924,95.438,540.721,538.857,0.0
52995.0,STARLINK-4296,PAYLOAD,2023-11-27 03:04:19,15.08831825,0.0001449,53.2168,236.1264,110.1587,249.9561,-0.00010098,-1.894e-05,0.0,0 STARLINK-4296,1 52995U 22076K   23331.12800802 -.00001894  00000-0 -10098-3 0  9995,2 52995  53.2168 236.1264 0001449 110.1587 249.9561 15.08831825 77474,6917.905,95.438,540.773,538.768,0.0
52995.0,STARLINK-4296,PAYLOAD,2023-11-27 06:15:06,15.08830344,0.0001505,53.2166,235.5314,117.4671,242.6474,0.00025332,3.745e-05,0.0,0 STARLINK-4296,1 52995U 22076K   23331.26048898  .00003745  00000-0  25332-3 0  9991,2 52995  53.2166 235.5314 0001505 117.4671 242.6474 15.08830344 77027,6917.91,95.438,540.816,538.734,0.0
52995.0,STARLINK-4296,PAYLOAD,2023-11-27 18:58:10,15.08867434,0.0001482,53.2162,233.153,119.1149,240.9991,0.0015588,0.00024626,0.0,0 STARLINK-4296,1 52995U 22076K   23331.79040428  .00024626  00000-0  15588-2 0  9992,2 52995  53.2162 233.1530 0001482 119.1149 240.9991 15.08867434 77575,6917.797,95.436,540.687,538.636,0.0
52995.0,STARLINK-4296,PAYLOAD,2023-11-27 22:08:56,15.08882806,0.0001442,53.2161,232.5586,117.8361,242.2777,0.0020651,0.0003277,0.0,0 STARLINK-4296,1 52995U 22076K   23331.92288045  .00032770  00000-0  20651-2 0  9992,2 52995  53.2161 232.5586 0001442 117.8361 242.2777 15.08882806 77123,6917.75,95.435,540.612,538.617,0.0
52995.0,STARLINK-4296,PAYLOAD,2023-11-28 06:05:51,15.08904389,0.0001368,53.216,231.0719,115.5025,244.6109,0.0017518,0.00027751,0.0,0 STARLINK-4296,1 52995U 22076K   23332.25406754  .00027751  00000-0  17518-2 0  9999,2 52995  53.2160 231.0719 0001368 115.5025 244.6109 15.08904389 77646,6917.684,95.433,540.495,538.602,0.0
52995.0,STARLINK-4296,PAYLOAD,2023-11-28 18:48:57,15.08834155,0.0001176,53.216,228.6927,96.377,263.7356,0.00025678,3.801e-05,0.0,0 STARLINK-4296,1 52995U 22076K   23332.78399987  .00003801  00000-0  25678-3 0  9993,2 52995  53.2160 228.6927 0001176  96.3770 263.7356 15.08834155 77727,6917.898,95.438,540.577,538.95,0.0
52995.0,STARLINK-4296,PAYLOAD,2023-11-28 21:59:44,15.0883562,0.0001168,53.216,228.098,93.6462,266.4663,0.0011246,0.00017653,0.0,0 STARLINK-4296,1 52995U 22076K   23332.91648182  .00017653  00000-0  11246-2 0  9997,2 52995  53.2160 228.0980 0001168  93.6462 266.4663 15.08835620 77278,6917.894,95.438,540.567,538.951,0.0
52995.0,STARLINK-4296,PAYLOAD,2023-11-29 04:21:16,15.08845413,0.000119,53.2159,226.9086,90.0683,270.0446,0.0022156,0.00035155,0.0,0 STARLINK-4296,1 52995U 22076K   23333.18144394  .00035155  00000-0  22156-2 0  9992,2 52995  53.2159 226.9086 0001190  90.0683 270.0446 15.08845413 77788,6917.864,95.437,540.552,538.906,0.0
52995.0,STARLINK-4296,PAYLOAD,2023-11-29 20:15:08,15.08846314,0.0001191,53.2159,223.9353,103.1374,256.9751,0.001462,0.0002306,0.0,0 STARLINK-4296,1 52995U 22076K   23333.84384907  .00023060  00000-0  14620-2 0  9990,2 52995  53.2159 223.9353 0001191 103.1374 256.9751 15.08846314 77880,6917.861,95.437,540.55,538.902,0.0
52995.0,STARLINK-4296,PAYLOAD,2023-11-30 20:05:56,15.08847329,0.0001152,53.216,219.475,99.4141,260.6981,0.0018376,0.00029084,0.0,0 STARLINK-4296,1 52995U 22076K   23334.83745550  .00029084  00000-0  18376-2 0  9999,2 52995  53.2160 219.4750 0001152  99.4141 260.6981 15.08847329 78031,6917.858,95.437,540.52,538.926,0.0
52995.0,STARLINK-4296,PAYLOAD,2023-12-01 19:56:42,15.08866087,0.000152,53.2158,215.0148,106.9548,253.1611,0.0015626,0.00024686,0.0,0 STARLINK-4296,1 52995U 22076K   23335.83105190  .00024686  00000-0  15626-2 0  9998,2 52995  53.2158 215.0148 0001520 106.9548 253.1611 15.08866087 78180,6917.801,95.436,540.717,538.614,0.0
52995.0,STARLINK-4296,PAYLOAD,2023-12-01 21:32:06,15.08861224,0.0001377,53.2159,214.718,84.8603,275.2546,0.0010722,0.00016827,0.0,0 STARLINK-4296,1 52995U 22076K   23335.89729168  .00016827  00000-0  10722-2 0  9991,2 52995  53.2159 214.7180 0001377  84.8603 275.2546 15.08861224 77728,6917.816,95.436,540.633,538.728,0.0
52995.0,STARLINK-4296,PAYLOAD,2023-12-01 23:07:28,15.08867727,0.000146,53.216,214.4185,99.5875,260.5282,0.001118,0.00017563,0.0,0 STARLINK-4296,1 52995U 22076K   23335.96352860  .00017563  00000-0  11180-2 0  9997,2 52995  53.2160 214.4185 0001460  99.5875 260.5282 15.08867727 77738,6917.796,95.436,540.671,538.651,0.0
52995.0,STARLINK-4296,PAYLOAD,2023-12-02 19:47:29,15.08846038,0.0001406,53.2158,210.552,98.7674,261.3478,0.0001294,1.772e-05,0.0,0 STARLINK-4296,1 52995U 22076K   23336.82464866  .00001772  00000-0  12940-3 0  9994,2 52995  53.2158 210.5520 0001406  98.7674 261.3478 15.08846038 78338,6917.862,95.437,540.7,538.754,0.0
52995.0,STARLINK-4296,PAYLOAD,2023-12-02 21:22:52,15.08842763,0.0001323,53.2162,210.2554,96.4698,263.6445,6.958e-07,-2.77e-06,0.0,0 STARLINK-4296,1 52995U 22076K   23336.89088906 -.00000277  00000-0  69580-6 0  9993,2 52995  53.2162 210.2554 0001323  96.4698 263.6445 15.08842763 77874,6917.872,95.437,540.652,538.822,0.0
52995.0,STARLINK-4296,PAYLOAD,2023-12-03 02:09:02,15.08835261,0.0001331,53.2161,209.3632,89.6486,270.4658,-0.00013204,-2.388e-05,0.0,0 STARLINK-4296,1 52995U 22076K   23337.08961215 -.00002388  00000-0 -13204-3 0  9993,2 52995  53.2161 209.3632 0001331  89.6486 270.4658 15.08835261 78370,6917.895,95.438,540.681,538.839,0.0
52995.0,STARLINK-4296,PAYLOAD,2023-12-03 19:38:18,15.08825354,0.000138,53.2165,206.0907,95.4716,264.6434,-0.00036177,-6.039e-05,0.0,0 STARLINK-4296,1 52995U 22076K   23337.81826553 -.00006039  00000-0 -36177-3 0  9990,2 52995  53.2165 206.0907 0001380  95.4716 264.6434 15.08825354 78489,6917.925,95.438,540.745,538.835,0.0
52995.0,STARLINK-4296,PAYLOAD,2023-12-04 00:24:27,15.08828936,0.0001415,53.2168,205.1991,90.063,270.0524,-0.00027094,-4.596e-05,0.0,0 STARLINK-4296,1 52995U 22076K   23338.01698478 -.00004596  00000-0 -27094-3 0  9990,2 52995  53.2168 205.1991 0001415  90.0630 270.0524 15.08828936 78042,6917.914,95.438,540.758,538.8,0.0
52995.0,STARLINK-4296,PAYLOAD,2023-12-05 14:33:43,15.08837769,0.0001759,53.2167,198.0661,59.0965,301.02,0.00028007,4.172e-05,0.0,0 STARLINK-4296,1 52995U 22076K   23339.60675096  .00004172  00000-0  28007-3 0  9990,2 52995  53.2167 198.0661 0001759  59.0965 301.0200 15.08837769 78288,6917.887,95.438,540.969,538.535,0.0
52995.0,STARLINK-4296,PAYLOAD,2023-12-06 14:24:28,15.08850057,0.0001416,53.2172,193.6026,85.5859,274.5294,0.00013382,1.843e-05,0.0,0 STARLINK-4296,1 52995U 22076K   23340.60033483  .00001843  00000-0  13382-3 0  9992,2 52995  53.2172 193.6026 0001416  85.5859 274.5294 15.08850057 78435,6917.85,95.437,540.694,538.735,0.0
52995.0,STARLINK-4296,PAYLOAD,2023-12-06 23:56:48,15.08845918,0.0001043,53.2162,191.8185,86.92,273.1911,9.2546e-05,1.186e-05,0.0,0 STARLINK-4296,1 52995U 22076K   23340.99777956  .00001186  00000-0  92546-4 0  9994,2 52995  53.2162 191.8185 0001043  86.9200 273.1911 15.08845918 78960,6917.862,95.437,540.449,539.006,0.0
52995.0,STARLINK-4296,PAYLOAD,2023-12-09 12:21:27,15.08838036,0.0001012,53.2174,180.5188,82.7427,277.368,-3.8808e-06,-3.5e-06,0.0,0 STARLINK-4296,1 52995U 22076K   23343.51490267 -.00000350  00000-0 -38808-5 0  9998,2 52995  53.2174 180.5188 0001012  82.7427 277.3680 15.08838036 79347,6917.886,95.438,540.451,539.051,0.0
52995.0,STARLINK-4296,PAYLOAD,2023-12-09 13:56:50,15.08839512,0.0001087,53.2169,180.2229,78.0678,282.0436,5.742e-06,-1.96e-06,0.0,0 STARLINK-4296,1 52995U 22076K   23343.58114112 -.00000196  00000-0  57420-5 0  9995,2 52995  53.2169 180.2229 0001087  78.0678 282.0436 15.08839512 78882,6917.882,95.438,540.499,538.995,0.0
52995.0,STARLINK-4296,PAYLOAD,2023-12-09 15:32:13,15.08841872,0.0001435,53.2169,179.9256,77.2255,282.8897,2.3694e-05,8.9e-07,0.0,0 STARLINK-4296,1 52995U 22076K   23343.64737987  .00000089  00000-0  23694-4 0  9998,2 52995  53.2169 179.9256 0001435  77.2255 282.8897 15.08841872 78898,6917.875,95.437,540.732,538.747,0.0
52995.0,STARLINK-4296,PAYLOAD,2023-12-09 23:29:09,15.08840083,0.000152,53.2158,178.4383,91.1043,269.0123,5.7094e-05,6.21e-06,0.0,0 STARLINK-4296,1 52995U 22076K   23343.97857969  .00000621  00000-0  57094-4 0  9990,2 52995  53.2158 178.4383 0001520  91.1043 269.0123 15.08840083 78944,6917.88,95.438,540.797,538.694,0.0
52995.0,STARLINK-4296,PAYLOAD,2023-12-10 18:33:47,15.08836974,0.0001457,53.2166,174.8695,91.7128,268.4031,2.6147e-05,1.28e-06,0.0,0 STARLINK-4296,1 52995U 22076K   23344.77346313  .00000128  00000-0  26147-4 0  9992,2 52995  53.2166 174.8695 0001457  91.7128 268.4031 15.08836974 79539,6917.89,95.438,540.763,538.747,0.0
52995.0,STARLINK-4296,PAYLOAD,2023-12-11 19:59:57,15.08841223,0.0001437,53.2166,170.1117,91.0472,269.0685,2.3394e-05,8.4e-07,0.0,0 STARLINK-4296,1 52995U 22076K   23345.83330126  .00000084  00000-0  23394-4 0  9997,2 52995  53.2166 170.1117 0001437  91.0472 269.0685 15.08841223 79692,6917.877,95.437,540.736,538.748,0.0
52995.0,STARLINK-4296,PAYLOAD,2023-12-12 19:50:44,15.08841415,0.000143,53.2168,165.6506,90.5347,269.5809,7.107e-05,8.43e-06,0.0,0 STARLINK-4296,1 52995U 22076K   23346.82689959  .00000843  00000-0  71070-4 0  9995,2 52995  53.2168 165.6506 0001430  90.5347 269.5809 15.08841415 79374,6917.876,95.437,540.73,538.752,0.0
